{
  "type": "FeatureCollection",
  "name": "dam-levels",
  "crs": {
    "type": "name",
    "properties": {
      "name": "urn:ogc:def:crs:OGC:1.3:CRS84"
    }
  },
  "features": [
    {
      "type": "Feature",
      "geometry": {
        "type": "Point",
        "coordinates": [
          74.086338,
          15.760558
        ]
      },
      "properties": {
        "": "tillari",
        "Date": "*12 hours 45 min* ago",
        "Dead level (m)": 64,
        "Full level (m)": 113.2,
        "Max storage (Ha.m.)": 46217,
        "Current Level (m)": 109.77,
        "Current Storage (Ha.m.)": 40910.9,
        "Discharge (cumecs)": 4.33,
        "Percent_Full": 89,
        "Name": "Tillari Dam",
        "River": null,
        "District": null,
        "Spillway Status": "Open",
        "Alert Level": "Normal",
        "Last Updated": null
      }
    },
    {
      "type": "Feature",
      "geometry": {
        "type": "Point",
        "coordinates": [
          74.178949,
          15.212616
        ]
      },
      "properties": {
        "": "selaulim",
        "Date": "*12 hours 45 min* ago",
        "Dead level (m)": 20.42,
        "Full level (m)": 41.15,
        "Max storage (Ha.m.)": 23436,
        "Current Level (m)": 41.21,
        "Current Storage (Ha.m.)": 23496,
        "Discharge (cumecs)": 0,
        "Percent_Full": 100,
        "Name": "Selaulim Dam",
        "River": null,
        "District": null,
        "Spillway Status": "Open",
        "Alert Level": "Normal",
        "Last Updated": null
      }
    },
    {
      "type": "Feature",
      "geometry": {
        "type": "Point",
        "coordinates": [
          74.088487,
          15.616885
        ]
      },
      "properties": {
        "": "anjunem",
        "Date": "*12 hours 45 min* ago",
        "Dead level (m)": 61.5,
        "Full level (m)": 93.2,
        "Max storage (Ha.m.)": 4483,
        "Current Level (m)": 93.02,
        "Current Storage (Ha.m.)": 4416,
        "Discharge (cumecs)": 0,
        "Percent_Full": 99,
        "Name": "Anjunem Dam",
        "River": null,
        "District": null,
        "Spillway Status": "Open",
        "Alert Level": "Normal",
        "Last Updated": null
      }
    },
    {
      "type": "Feature",
      "geometry": {
        "type": "Point",
        "coordinates": [
          74.044253,
          15.027984
        ]
      },
      "properties": {
        "": "chapoli",
        "Date": "*12 hours 45 min* ago",
        "Dead level (m)": 22,
        "Full level (m)": 38.75,
        "Max storage (Ha.m.)": 1122,
        "Current Level (m)": 35.75,
        "Current Storage (Ha.m.)": 840.31,
        "Discharge (cumecs)": 0,
        "Percent_Full": 75,
        "Name": "Chapoli Dam",
        "River": null,
        "District": null,
        "Spillway Status": "Open",
        "Alert Level": "Normal",
        "Last Updated": null
      }
    },
    {
      "type": "Feature",
      "geometry": {
        "type": "Point",
        "coordinates": [
          73.906421,
          15.671326
        ]
      },
      "properties": {
        "": "amthane",
        "Date": "*12 hours 45 min* ago",
        "Dead level (m)": 29,
        "Full level (m)": 50.03,
        "Max storage (Ha.m.)": 585,
        "Current Level (m)": 49.97,
        "Current Storage (Ha.m.)": 581.4,
        "Discharge (cumecs)": 0,
        "Percent_Full": 99,
        "Name": "Amthane Dam",
        "River": null,
        "District": null,
        "Spillway Status": "Open",
        "Alert Level": "Normal",
        "Last Updated": null
      }
    },
    {
      "type": "Feature",
      "geometry": {
        "type": "Point",
        "coordinates": [
          74.101951,
          15.289115
        ]
      },
      "properties": {
        "": "panchawadi",
        "Date": "*12 hours 45 min* ago",
        "Dead level (m)": 14.7,
        "Full level (m)": 26,
        "Max storage (Ha.m.)": 436.8,
        "Current Level (m)": 25.7,
        "Current Storage (Ha.m.)": 415.9,
        "Discharge (cumecs)": 0,
        "Percent_Full": 95,
        "Name": "Panchawadi Dam",
        "River": null,
        "District": null,
        "Spillway Status": "Open",
        "Alert Level": "Normal",
        "Last Updated": null
      }
    },
    {
      "type": "Feature",
      "geometry": {
        "type": "Point",
        "coordinates": [
          74.116846,
          15.016787
        ]
      },
      "properties": {
        "": "gaunem",
        "Date": "*12 hours 45 min* ago",
        "Dead level (m)": 46,
        "Full level (m)": 63.5,
        "Max storage (Ha.m.)": 177,
        "Current Level (m)": 63.36,
        "Current Storage (Ha.m.)": 173.77,
        "Discharge (cumecs)": 0,
        "Percent_Full": 98,
        "Name": "Gaunem Dam",
        "River": null,
        "District": null,
        "Spillway Status": "Open",
        "Alert Level": "Normal",
        "Last Updated": null
      }
    }
  ]
}