{"type":"FeatureCollection","name":"dam-levels","crs":{"type":"name","properties":{"name":"urn:ogc:def:crs:OGC:1.3:CRS84"}},"features":[{"type":"Feature","geometry":{"type":"Point","coordinates":[74.086338,15.760558]},"properties":{"":"tillari","Date":"*1 day 4 hours* ago","Dead level (m)":64,"Full level (m)":113.2,"Max storage (Ha.m.)":46217,"Current Level (m)":111.33,"Current Storage (Ha.m.)":43325.7,"Discharge (cumecs)":24.8,"Percent_Full":94,"Name":"Tillari Dam","River":null,"District":null,"Spillway Status":"Open","Alert Level":"Normal","Last Updated":null}},{"type":"Feature","geometry":{"type":"Point","coordinates":[74.178949,15.212616]},"properties":{"":"selaulim","Date":"*1 day 4 hours* ago","Dead level (m)":20.42,"Full level (m)":41.15,"Max storage (Ha.m.)":23436,"Current Level (m)":41.42,"Current Storage (Ha.m.)":23832,"Discharge (cumecs)":0,"Percent_Full":102,"Name":"Selaulim Dam","River":null,"District":null,"Spillway Status":"Open","Alert Level":"Normal","Last Updated":null}},{"type":"Feature","geometry":{"type":"Point","coordinates":[74.088487,15.616885]},"properties":{"":"anjunem","Date":"*1 day 4 hours* ago","Dead level (m)":61.5,"Full level (m)":93.2,"Max storage (Ha.m.)":4483,"Current Level (m)":92.71,"Current Storage (Ha.m.)":4337.5,"Discharge (cumecs)":4.87,"Percent_Full":97,"Name":"Anjunem Dam","River":null,"District":null,"Spillway Status":"Open","Alert Level":"Normal","Last Updated":null}},{"type":"Feature","geometry":{"type":"Point","coordinates":[74.044253,15.027984]},"properties":{"":"chapoli","Date":"*1 day 4 hours* ago","Dead level (m)":22,"Full level (m)":38.75,"Max storage (Ha.m.)":1122,"Current Level (m)":35.79,"Current Storage (Ha.m.)":843.83,"Discharge (cumecs)":0,"Percent_Full":75,"Name":"Chapoli Dam","River":null,"District":null,"Spillway Status":"Open","Alert Level":"Normal","Last Updated":null}},{"type":"Feature","geometry":{"type":"Point","coordinates":[73.906421,15.671326]},"properties":{"":"amthane","Date":"*1 day 4 hours* ago","Dead level (m)":29,"Full level (m)":50.03,"Max storage (Ha.m.)":585,"Current Level (m)":49.65,"Current Storage (Ha.m.)":556,"Discharge (cumecs)":0,"Percent_Full":95,"Name":"Amthane Dam","River":null,"District":null,"Spillway Status":"Open","Alert Level":"Normal","Last Updated":null}},{"type":"Feature","geometry":{"type":"Point","coordinates":[74.101951,15.289115]},"properties":{"":"panchawadi","Date":"*1 day 4 hours* ago","Dead level (m)":14.7,"Full level (m)":26,"Max storage (Ha.m.)":436.8,"Current Level (m)":25.98,"Current Storage (Ha.m.)":435.28,"Discharge (cumecs)":0,"Percent_Full":100,"Name":"Panchawadi Dam","River":null,"District":null,"Spillway Status":"Open","Alert Level":"Normal","Last Updated":null}},{"type":"Feature","geometry":{"type":"Point","coordinates":[74.116846,15.016787]},"properties":{"":"gaunem","Date":"*1 day 4 hours* ago","Dead level (m)":46,"Full level (m)":63.5,"Max storage (Ha.m.)":177,"Current Level (m)":63.5,"Current Storage (Ha.m.)":177,"Discharge (cumecs)":0,"Percent_Full":100,"Name":"Gaunem Dam","River":null,"District":null,"Spillway Status":"Open","Alert Level":"Normal","Last Updated":null}}]}