{
  "type": "FeatureCollection",
  "name": "nasa-firms",
  "crs": {
    "type": "name",
    "properties": {
      "name": "urn:ogc:def:crs:OGC:1.3:CRS84"
    }
  },
  "features": [
    {
      "type": "Feature",
      "geometry": {
        "type": "Point",
        "coordinates": [
          null,
          null
        ]
      },
      "properties": {
        "latitude": 14.32038,
        "longitude": 74.95383,
        "bright_ti4": 336.27,
        "scan": 0.57,
        "track": 0.43,
        "acq_date": "2026-03-26",
        "acq_time": "12:00:00 AM",
        "satellite": "N21",
        "instrument": "VIIRS",
        "confidence": "n",
        "version": "2.0NRT",
        "bright_ti5": 307.67,
        "frp": 3.77,
        "daynight": "D"
      }
    }
  ]
}