{"type":"FeatureCollection","name":"nasa-firms","crs":{"type":"name","properties":{"name":"urn:ogc:def:crs:OGC:1.3:CRS84"}},"features":[{"type":"Feature","geometry":{"type":"Point","coordinates":[null,null]},"properties":{"latitude":14.41687,"longitude":74.87235,"bright_ti4":332.78,"scan":0.45,"track":0.39,"acq_date":"2026-02-13","acq_time":"12:00:00 AM","satellite":"N21","instrument":"VIIRS","confidence":"l","version":"2.0NRT","bright_ti5":307.35,"frp":6.04,"daynight":"D"}},{"type":"Feature","geometry":{"type":"Point","coordinates":[null,null]},"properties":{"latitude":14.41697,"longitude":74.87186,"bright_ti4":337.05,"scan":0.45,"track":0.39,"acq_date":"2026-02-13","acq_time":"12:00:00 AM","satellite":"N21","instrument":"VIIRS","confidence":"l","version":"2.0NRT","bright_ti5":308.48,"frp":8.14,"daynight":"D"}}]}