{"type":"FeatureCollection","name":"schools","crs":{"type":"name","properties":{"name":"urn:ogc:def:crs:OGC:1.3:CRS84"}},"features":[{"type":"Feature","geometry":{"type":"Point","coordinates":[null,null]},"properties":{"<!DOCTYPE html>":"<html lang=en>"}},{"type":"Feature","geometry":{"type":"Point","coordinates":[null,null]},"properties":{"<!DOCTYPE html>":"  <meta charset=utf-8>"}},{"type":"Feature","geometry":{"type":"Point","coordinates":[null,null]},"properties":{"<!DOCTYPE html>":"  <meta name=viewport content=\"initial-scale=1, minimum-scale=1, width=device-width\">"}},{"type":"Feature","geometry":{"type":"Point","coordinates":[null,null]},"properties":{"<!DOCTYPE html>":"  <title>Error 502 (Server Error)!!1</title>"}},{"type":"Feature","geometry":{"type":"Point","coordinates":[null,null]},"properties":{"<!DOCTYPE html>":"  <style>"}},{"type":"Feature","geometry":{"type":"Point","coordinates":[null,null]},"properties":{"<!DOCTYPE html>":"    *{margin:0","__parsed_extra":["padding:0}html,code{font:15px/22px arial,sans-serif}html{background:#fff","color:#222","padding:15px}body{margin:7% auto 0","max-width:390px","min-height:180px","padding:30px 0 15px}* > body{background:url(//www.google.com/images/errors/robot.png) 100% 5px no-repeat","padding-right:205px}p{margin:11px 0 22px","overflow:hidden}ins{color:#777","text-decoration:none}a img{border:0}@media screen and (max-width:772px){body{background:none","margin-top:0","max-width:none","padding-right:0}}#logo{background:url(//www.google.com/images/branding/googlelogo/1x/googlelogo_color_150x54dp.png) no-repeat","margin-left:-5px}@media only screen and (min-resolution:192dpi){#logo{background:url(//www.google.com/images/branding/googlelogo/2x/googlelogo_color_150x54dp.png) no-repeat 0% 0%/100% 100%","-moz-border-image:url(//www.google.com/images/branding/googlelogo/2x/googlelogo_color_150x54dp.png) 0}}@media only screen and (-webkit-min-device-pixel-ratio:2){#logo{background:url(//www.google.com/images/branding/googlelogo/2x/googlelogo_color_150x54dp.png) no-repeat","-webkit-background-size:100% 100%}}#logo{display:inline-block","height:54px","width:150px}"]}},{"type":"Feature","geometry":{"type":"Point","coordinates":[null,null]},"properties":{"<!DOCTYPE html>":"  </style>"}},{"type":"Feature","geometry":{"type":"Point","coordinates":[null,null]},"properties":{"<!DOCTYPE html>":"  <a href=//www.google.com/><span id=logo aria-label=Google></span></a>"}},{"type":"Feature","geometry":{"type":"Point","coordinates":[null,null]},"properties":{"<!DOCTYPE html>":"  <p><b>502.</b> <ins>That’s an error.</ins>"}},{"type":"Feature","geometry":{"type":"Point","coordinates":[null,null]},"properties":{"<!DOCTYPE html>":"  <p>The server encountered a temporary error and could not complete your request.<p>Please try again in 30 seconds.  <ins>That’s all we know.</ins>"}},{"type":"Feature","geometry":{"type":"Point","coordinates":[null,null]},"properties":{"<!DOCTYPE html>":null}}]}