{
  "type": "FeatureCollection",
  "name": "schools",
  "crs": {
    "type": "name",
    "properties": {
      "name": "urn:ogc:def:crs:OGC:1.3:CRS84"
    }
  },
  "features": [
    {
      "type": "Feature",
      "geometry": {
        "type": "Point",
        "coordinates": [
          null,
          null
        ]
      },
      "properties": {
        "Name": null,
        "Principal": null,
        "Mobile": null,
        "Email": null,
        "Capacity": null,
        "Panchayat": null,
        "Type": "Govt",
        "Building Condition": null,
        "Used as Shelter": null,
        "Water Supply": null,
        "Toilets": null,
        "Classroom Count": null,
        "Level": "Primary / High / College"
      }
    },
    {
      "type": "Feature",
      "geometry": {
        "type": "Point",
        "coordinates": [
          null,
          null
        ]
      },
      "properties": {
        "Name": null,
        "Principal": null,
        "Mobile": null,
        "Email": null,
        "Capacity": null,
        "Panchayat": null,
        "Type": "Private",
        "Building Condition": null,
        "Used as Shelter": null,
        "Water Supply": null,
        "Toilets": null,
        "Classroom Count": null,
        "Level": null
      }
    }
  ]
}